STARLINK-2429           
1 47838U 21018BD  26068.80506549  .00000282  00000+0  21654-4 0  9994
2 47838  53.1602 244.9032 0001412  77.7862 282.3297 15.30195186276702
BANDWAGON-2 OBJECT D    
1 62380U 24247D   26068.52261193  .00011259  00000+0  40119-3 0  9994
2 62380  44.9954 115.6710 0003488 351.1453   8.9368 15.29076102 67732
